{
  "norad_id": 68583,
  "name": "KUIPER-00244",
  "history": [
    {
      "epoch": "2026-04-09T12:02:15.762912Z",
      "apogee_km": 455.3892903843034,
      "perigee_km": 449.8372565620248,
      "latitude_deg": 2.603236718097262e-05,
      "longitude_deg": 130.7579867926889,
      "height_km": 454.38529436579614,
      "semi_major_axis_km": 6830.750273473164,
      "eccentricity": 0.0004064,
      "inclination_deg": 51.8746,
      "raan_deg": 149.0725,
      "arg_perigee_deg": 111.4311,
      "mean_anomaly_deg": 248.711,
      "mean_motion_rev_day": 15.37801038
    }
  ]
}